start=new Date('2022-01-02T00:00:00.000Z').valueOf();
sats=[{"RA_OF_ASC_NODE":"248.5912","MEAN_MOTION_DOT":"0.00002312","REV_AT_EPOCH":"368","PERIAPSIS":"348.379","TLE_LINE1":"1 49459U 21104BD  22001.91667824  .00002312  00000-0  20883-4 0  9990","EPHEMERIS_TYPE":"0","SEMIMAJOR_AXIS":"6727.873","FILE":"3255246","APOAPSIS":"351.096","COUNTRY_CODE":"US","OBJECT_TYPE":"PAYLOAD","DECAY_DATE":null,"ECCENTRICITY":"0.00020190","LAUNCH_DATE":"2021-11-13","SITE":"AFETR","MEAN_ELEMENT_THEORY":"SGP4","OBJECT_NAME":"STARLINK-3141","EPOCH":"2022-01-01T22:00:00.999936","MEAN_MOTION_DDOT":"0.0000000000000","OBJECT_ID":"2021-104BD","CLASSIFICATION_TYPE":"U","CENTER_NAME":"EARTH","GP_ID":"192896686","ARG_OF_PERICENTER":"20.5869","NORAD_CAT_ID":"49459","MEAN_ANOMALY":"73.5620","TLE_LINE2":"2 49459  53.2158 248.5912 0002019  20.5869  73.5620 15.73207849  3686","REF_FRAME":"TEME","INCLINATION":"53.2158","ELEMENT_SET_NO":"999","RCS_SIZE":"LARGE","BSTAR":"0.00002088300000","PERIOD":"91.533","TIME_SYSTEM":"UTC","MEAN_MOTION":"15.73207849"},{"REF_FRAME":"TEME","INCLINATION":"53.2172","ELEMENT_SET_NO":"999","RCS_SIZE":"LARGE","BSTAR":"-0.00515200000000","PERIOD":"91.550","TIME_SYSTEM":"UTC","MEAN_MOTION":"15.72916605","EPOCH":"2022-01-01T22:00:00.999936","MEAN_MOTION_DDOT":"0.0000000000000","OBJECT_ID":"2021-104BE","CLASSIFICATION_TYPE":"U","CENTER_NAME":"EARTH","GP_ID":"192896437","ARG_OF_PERICENTER":"16.4621","NORAD_CAT_ID":"49460","MEAN_ANOMALY":"78.4922","TLE_LINE2":"2 49460  53.2172 248.5700 0002535  16.4621  78.4922 15.72916605  3687","ECCENTRICITY":"0.00025350","LAUNCH_DATE":"2021-11-13","SITE":"AFETR","MEAN_ELEMENT_THEORY":"SGP4","OBJECT_NAME":"STARLINK-3140","RA_OF_ASC_NODE":"248.5700","MEAN_MOTION_DOT":"-0.00661610","PERIAPSIS":"348.863","REV_AT_EPOCH":"368","TLE_LINE1":"1 49460U 21104BE  22001.91667824 -.00661610  00000-0 -51520-2 0  9996","EPHEMERIS_TYPE":"0","SEMIMAJOR_AXIS":"6728.703","FILE":"3255246","COUNTRY_CODE":"US","APOAPSIS":"352.274","OBJECT_TYPE":"PAYLOAD","DECAY_DATE":null},{"OBJECT_ID":"2021-115A","MEAN_MOTION_DDOT":"0.0000000000000","EPOCH":"2022-01-01T22:00:00.999936","CLASSIFICATION_TYPE":"U","ARG_OF_PERICENTER":"35.8885","GP_ID":"192896715","CENTER_NAME":"EARTH","TLE_LINE2":"2 49724  53.2149 176.0195 0002107  35.8885 296.7926 15.40441080  3638","MEAN_ANOMALY":"296.7926","NORAD_CAT_ID":"49724","INCLINATION":"53.2149","REF_FRAME":"TEME","RCS_SIZE":"LARGE","ELEMENT_SET_NO":"999","TIME_SYSTEM":"UTC","BSTAR":"0.00118010000000","PERIOD":"93.480","MEAN_MOTION":"15.40441080","PERIAPSIS":"443.371","REV_AT_EPOCH":"363","MEAN_MOTION_DOT":"0.00048403","RA_OF_ASC_NODE":"176.0195","EPHEMERIS_TYPE":"0","TLE_LINE1":"1 49724U 21115A   22001.91667824  .00048403  00000-0  11801-2 0  9996","FILE":"3255246","SEMIMAJOR_AXIS":"6822.944","DECAY_DATE":null,"OBJECT_TYPE":"PAYLOAD","APOAPSIS":"446.246","COUNTRY_CODE":"US","ECCENTRICITY":"0.00021070","LAUNCH_DATE":"2021-12-02","MEAN_ELEMENT_THEORY":"SGP4","SITE":"AFETR","OBJECT_NAME":"STARLINK-3219"},{"PERIAPSIS":"443.379","REV_AT_EPOCH":"363","MEAN_MOTION_DOT":"-0.00000159","RA_OF_ASC_NODE":"176.0229","EPHEMERIS_TYPE":"0","TLE_LINE1":"1 49725U 21115B   22001.91667824 -.00000159  00000-0  59483-5 0  9995","FILE":"3255246","SEMIMAJOR_AXIS":"6822.863","DECAY_DATE":null,"OBJECT_TYPE":"PAYLOAD","APOAPSIS":"446.077","COUNTRY_CODE":"US","ECCENTRICITY":"0.00019770","LAUNCH_DATE":"2021-12-02","MEAN_ELEMENT_THEORY":"SGP4","SITE":"AFETR","OBJECT_NAME":"STARLINK-3218","OBJECT_ID":"2021-115B","MEAN_MOTION_DDOT":"0.0000000000000","EPOCH":"2022-01-01T22:00:00.999936","CLASSIFICATION_TYPE":"U","ARG_OF_PERICENTER":"41.5675","GP_ID":"192896466","CENTER_NAME":"EARTH","TLE_LINE2":"2 49725  53.2147 176.0229 0001977  41.5675 289.0576 15.40468415  3637","MEAN_ANOMALY":"289.0576","NORAD_CAT_ID":"49725","INCLINATION":"53.2147","REF_FRAME":"TEME","RCS_SIZE":"LARGE","ELEMENT_SET_NO":"999","TIME_SYSTEM":"UTC","BSTAR":"0.00000594830000","PERIOD":"93.478","MEAN_MOTION":"15.40468415"},{"ECCENTRICITY":"0.00019180","LAUNCH_DATE":"2021-12-02","SITE":"AFETR","MEAN_ELEMENT_THEORY":"SGP4","OBJECT_NAME":"STARLINK-3237","RA_OF_ASC_NODE":"177.6507","MEAN_MOTION_DOT":"-0.00658419","REV_AT_EPOCH":"363","PERIAPSIS":"519.166","TLE_LINE1":"1 49726U 21115C   22001.91667824 -.00658419  00000-0 -37009-1 0  9991","EPHEMERIS_TYPE":"0","SEMIMAJOR_AXIS":"6898.624","FILE":"3255246","APOAPSIS":"521.812","COUNTRY_CODE":"US","OBJECT_TYPE":"PAYLOAD","DECAY_DATE":null,"REF_FRAME":"TEME","INCLINATION":"53.2174","ELEMENT_SET_NO":"999","RCS_SIZE":"LARGE","BSTAR":"-0.03700900000000","PERIOD":"95.039","TIME_SYSTEM":"UTC","MEAN_MOTION":"15.15161877","EPOCH":"2022-01-01T22:00:00.999936","MEAN_MOTION_DDOT":"0.0000000000000","OBJECT_ID":"2021-115C","CLASSIFICATION_TYPE":"U","CENTER_NAME":"EARTH","GP_ID":"192895215","ARG_OF_PERICENTER":"40.8803","NORAD_CAT_ID":"49726","MEAN_ANOMALY":"186.5765","TLE_LINE2":"2 49726  53.2174 177.6507 0001918  40.8803 186.5765 15.15161877  3639"},{"SEMIMAJOR_AXIS":"6899.293","FILE":"3255246","OBJECT_TYPE":"PAYLOAD","APOAPSIS":"522.491","COUNTRY_CODE":"US","DECAY_DATE":null,"RA_OF_ASC_NODE":"177.6510","PERIAPSIS":"519.825","REV_AT_EPOCH":"363","MEAN_MOTION_DOT":"-0.00658160","TLE_LINE1":"1 49727U 21115D   22001.91667824 -.00658160  00000-0 -37226-1 0  9996","EPHEMERIS_TYPE":"0","SITE":"AFETR","MEAN_ELEMENT_THEORY":"SGP4","OBJECT_NAME":"STARLINK-3242","ECCENTRICITY":"0.00019320","LAUNCH_DATE":"2021-12-02","GP_ID":"192895465","CENTER_NAME":"EARTH","ARG_OF_PERICENTER":"40.4923","NORAD_CAT_ID":"49727","TLE_LINE2":"2 49727  53.2174 177.6510 0001932  40.4923 170.4831 15.14941581  3632","MEAN_ANOMALY":"170.4831","MEAN_MOTION_DDOT":"0.0000000000000","EPOCH":"2022-01-01T22:00:00.999936","OBJECT_ID":"2021-115D","CLASSIFICATION_TYPE":"U","TIME_SYSTEM":"UTC","PERIOD":"95.053","BSTAR":"-0.03722600000000","MEAN_MOTION":"15.14941581","REF_FRAME":"TEME","INCLINATION":"53.2174","ELEMENT_SET_NO":"999","RCS_SIZE":"LARGE"},{"INCLINATION":"53.2174","REF_FRAME":"TEME","RCS_SIZE":"LARGE","ELEMENT_SET_NO":"999","PERIOD":"95.068","BSTAR":"-0.03746700000000","TIME_SYSTEM":"UTC","MEAN_MOTION":"15.14708439","OBJECT_ID":"2021-115E","EPOCH":"2022-01-01T22:00:00.999936","MEAN_MOTION_DDOT":"0.0000000000000","CLASSIFICATION_TYPE":"U","ARG_OF_PERICENTER":"43.9779","CENTER_NAME":"EARTH","GP_ID":"192896216","MEAN_ANOMALY":"150.5868","TLE_LINE2":"2 49728  53.2174 177.6505 0001840  43.9779 150.5868 15.14708439  3634","NORAD_CAT_ID":"49728","ECCENTRICITY":"0.00018400","LAUNCH_DATE":"2021-12-02","MEAN_ELEMENT_THEORY":"SGP4","SITE":"AFETR","OBJECT_NAME":"STARLINK-3240","MEAN_MOTION_DOT":"-0.00658044","PERIAPSIS":"520.596","REV_AT_EPOCH":"363","RA_OF_ASC_NODE":"177.6505","EPHEMERIS_TYPE":"0","TLE_LINE1":"1 49728U 21115E   22001.91667824 -.00658044  00000-0 -37467-1 0  9995","FILE":"3255246","SEMIMAJOR_AXIS":"6900.001","DECAY_DATE":null,"COUNTRY_CODE":"US","APOAPSIS":"523.135","OBJECT_TYPE":"PAYLOAD"},{"OBJECT_ID":"2021-115F","MEAN_MOTION_DDOT":"0.0000000000000","EPOCH":"2022-01-01T22:00:00.999936","CLASSIFICATION_TYPE":"U","ARG_OF_PERICENTER":"42.2719","GP_ID":"192896966","CENTER_NAME":"EARTH","TLE_LINE2":"2 49729  53.2174 177.6497 0001859  42.2719 135.7426 15.14475483  3636","MEAN_ANOMALY":"135.7426","NORAD_CAT_ID":"49729","INCLINATION":"53.2174","REF_FRAME":"TEME","RCS_SIZE":"LARGE","ELEMENT_SET_NO":"999","TIME_SYSTEM":"UTC","PERIOD":"95.082","BSTAR":"-0.03772700000000","MEAN_MOTION":"15.14475483","PERIAPSIS":"521.291","REV_AT_EPOCH":"363","MEAN_MOTION_DOT":"-0.00658234","RA_OF_ASC_NODE":"177.6497","EPHEMERIS_TYPE":"0","TLE_LINE1":"1 49729U 21115F   22001.91667824 -.00658234  00000-0 -37727-1 0  9996","FILE":"3255246","SEMIMAJOR_AXIS":"6900.708","DECAY_DATE":null,"OBJECT_TYPE":"PAYLOAD","APOAPSIS":"523.856","COUNTRY_CODE":"US","ECCENTRICITY":"0.00018590","LAUNCH_DATE":"2021-12-02","MEAN_ELEMENT_THEORY":"SGP4","SITE":"AFETR","OBJECT_NAME":"STARLINK-3251"},{"PERIOD":"95.112","BSTAR":"-0.03824200000000","TIME_SYSTEM":"UTC","MEAN_MOTION":"15.14009531","REF_FRAME":"TEME","INCLINATION":"53.2173","ELEMENT_SET_NO":"999","RCS_SIZE":"LARGE","CENTER_NAME":"EARTH","GP_ID":"192895715","ARG_OF_PERICENTER":"37.0355","NORAD_CAT_ID":"49730","MEAN_ANOMALY":"107.4605","TLE_LINE2":"2 49730  53.2173 177.6472 0001995  37.0355 107.4605 15.14009531  3631","EPOCH":"2022-01-01T22:00:00.999936","MEAN_MOTION_DDOT":"0.0000000000000","OBJECT_ID":"2021-115G","CLASSIFICATION_TYPE":"U","SITE":"AFETR","MEAN_ELEMENT_THEORY":"SGP4","OBJECT_NAME":"STARLINK-3249","ECCENTRICITY":"0.00019950","LAUNCH_DATE":"2021-12-02","SEMIMAJOR_AXIS":"6902.124","FILE":"3255246","COUNTRY_CODE":"US","APOAPSIS":"525.366","OBJECT_TYPE":"PAYLOAD","DECAY_DATE":null,"RA_OF_ASC_NODE":"177.6472","MEAN_MOTION_DOT":"-0.00658468","PERIAPSIS":"522.612","REV_AT_EPOCH":"363","TLE_LINE1":"1 49730U 21115G   22001.91667824 -.00658468  00000-0 -38242-1 0  9990","EPHEMERIS_TYPE":"0"},{"RA_OF_ASC_NODE":"177.6486","REV_AT_EPOCH":"586","PERIAPSIS":"521.908","MEAN_MOTION_DOT":"-0.00658476","TLE_LINE1":"1 49731U 21115H   22001.91667824 -.00658476  00000-0 -37991-1 0  9990","EPHEMERIS_TYPE":"0","SEMIMAJOR_AXIS":"6901.416","FILE":"3255246","OBJECT_TYPE":"PAYLOAD","COUNTRY_CODE":"US","APOAPSIS":"524.654","DECAY_DATE":null,"ECCENTRICITY":"0.00019900","LAUNCH_DATE":"2021-12-02","SITE":"AFETR","MEAN_ELEMENT_THEORY":"SGP4","OBJECT_NAME":"STARLINK-3228","MEAN_MOTION_DDOT":"0.0000000000000","EPOCH":"2022-01-01T22:00:00.999936","OBJECT_ID":"2021-115H","CLASSIFICATION_TYPE":"U","GP_ID":"192895965","CENTER_NAME":"EARTH","ARG_OF_PERICENTER":"36.8566","NORAD_CAT_ID":"49731","TLE_LINE2":"2 49731  53.2173 177.6486 0001990  36.8566 124.4683 15.14242585  5863","MEAN_ANOMALY":"124.4683","REF_FRAME":"TEME","INCLINATION":"53.2173","ELEMENT_SET_NO":"999","RCS_SIZE":"LARGE","TIME_SYSTEM":"UTC","BSTAR":"-0.03799100000000","PERIOD":"95.097","MEAN_MOTION":"15.14242585"}];
